CYGNUS NG-23            
1 65616U 25208A   26012.95096218  .00007414  00000+0  14125-3 0  9993
2 65616  51.6330 347.9568 0007716  11.8640 348.2529 15.49263082   224
DRAGONFLY               
1 65729U 98067XH  26011.93926156  .00404790  00000+0  14348-2 0  9995
2 65729  51.6222 339.6309 0008200  93.5596 266.6346 15.87364482 17930
1998-067XK              
1 65731U 98067XK  26012.30382385  .00142032  00000+0  99524-3 0  9998
2 65731  51.6283 341.3779 0004899  67.9564 292.1955 15.73245680 17945
RSP-03                  
1 65732U 98067XL  26012.92420347  .00172622  00000+0  91493-3 0  9993
2 65732  51.6256 336.4917 0005962  80.2617 279.9057 15.79477921 18076
GHS-01                  
1 65733U 98067XM  26012.60108793  .00810388  31426-3  15877-2 0  9996
2 65733  51.6227 334.2894 0007869 109.4075 250.7786 15.99518774 18075
YOTSUBA-KULOVER         
1 65941U 98067XN  26012.93705456  .00065012  00000+0  65918-3 0  9990
2 65941  51.6289 342.6172 0004003  95.9259 264.2192 15.64609487 14730
BOTAN                   
1 65942U 98067XP  26012.20999686  .00160384  00000+0  12262-2 0  9992
2 65942  51.6268 344.5014 0004732  88.7806 271.3734 15.71124823 14646
E-KAGAKU-1              
1 65943U 98067XQ  26012.93694919  .00062326  00000+0  63283-3 0  9991
2 65943  51.6308 342.6229 0002599  93.3705 266.7587 15.64596272 14735
HRC MONOBLOCK CAMERA    
1 66052U 98067XR  26012.94256148  .00026988  00000+0  37839-3 0  9994
2 66052  51.6305 345.6539 0001128 353.8183   6.2794 15.56554040 13691
HTV-X1                  
1 66174U 25241A   26012.95096218  .00007414  00000+0  14125-3 0  9990
2 66174  51.6330 347.9568 0007716  11.8640 348.2529 15.49263082   516
SZ-21 MODULE            
1 66515U 25246C   26012.84038218  .00027649  00000+0  28253-3 0  9997
2 66515  41.4741 186.0642 0001670 152.3579 207.7351 15.64408480  9317
SHENZHOU-22             
1 66645U 25272A   26012.83137836  .00017741  00000+0  21248-3 0  9994
2 66645  41.4654 187.7636 0011510 272.9860  86.9661 15.60461132267643
