CCSDS_OMM_VERS = 2.0
CREATION_DATE  = 
ORIGINATOR     = 

OBJECT_NAME    = CYGNUS NG-23
OBJECT_ID      = 2025-208A
CENTER_NAME    = EARTH
REF_FRAME      = TEME
TIME_SYSTEM    = UTC
MEAN_ELEMENT_THEORY = SGP/SGP4

EPOCH          = 2026-01-12T22:49:23.132352
MEAN_MOTION    = 15.49263082
ECCENTRICITY   = .00077162
INCLINATION    = 51.6330
RA_OF_ASC_NODE = 347.9568
ARG_OF_PERICENTER = 11.8640
MEAN_ANOMALY   = 348.2529

EPHEMERIS_TYPE = 0
CLASSIFICATION_TYPE = U
NORAD_CAT_ID   = 65616
ELEMENT_SET_NO = 999
REV_AT_EPOCH   = 22
BSTAR          = .14124674E-3
MEAN_MOTION_DOT = .7414E-4
MEAN_MOTION_DDOT = 0

CCSDS_OMM_VERS = 2.0
CREATION_DATE  = 
ORIGINATOR     = 

OBJECT_NAME    = DRAGONFLY
OBJECT_ID      = 1998-067XH
CENTER_NAME    = EARTH
REF_FRAME      = TEME
TIME_SYSTEM    = UTC
MEAN_ELEMENT_THEORY = SGP/SGP4

EPOCH          = 2026-01-11T22:32:32.198784
MEAN_MOTION    = 15.87364482
ECCENTRICITY   = .00082
INCLINATION    = 51.6222
RA_OF_ASC_NODE = 339.6309
ARG_OF_PERICENTER = 93.5596
MEAN_ANOMALY   = 266.6346

EPHEMERIS_TYPE = 0
CLASSIFICATION_TYPE = U
NORAD_CAT_ID   = 65729
ELEMENT_SET_NO = 999
REV_AT_EPOCH   = 1793
BSTAR          = .14347524E-2
MEAN_MOTION_DOT = .40479E-2
MEAN_MOTION_DDOT = 0

CCSDS_OMM_VERS = 2.0
CREATION_DATE  = 
ORIGINATOR     = 

OBJECT_NAME    = 1998-067XK
OBJECT_ID      = 1998-067XK
CENTER_NAME    = EARTH
REF_FRAME      = TEME
TIME_SYSTEM    = UTC
MEAN_ELEMENT_THEORY = SGP/SGP4

EPOCH          = 2026-01-12T07:17:30.380640
MEAN_MOTION    = 15.73245680
ECCENTRICITY   = .00048998
INCLINATION    = 51.6283
RA_OF_ASC_NODE = 341.3779
ARG_OF_PERICENTER = 67.9564
MEAN_ANOMALY   = 292.1955

EPHEMERIS_TYPE = 0
CLASSIFICATION_TYPE = U
NORAD_CAT_ID   = 65731
ELEMENT_SET_NO = 999
REV_AT_EPOCH   = 1794
BSTAR          = .99524331E-3
MEAN_MOTION_DOT = .142032E-2
MEAN_MOTION_DDOT = 0

CCSDS_OMM_VERS = 2.0
CREATION_DATE  = 
ORIGINATOR     = 

OBJECT_NAME    = RSP-03
OBJECT_ID      = 1998-067XL
CENTER_NAME    = EARTH
REF_FRAME      = TEME
TIME_SYSTEM    = UTC
MEAN_ELEMENT_THEORY = SGP/SGP4

EPOCH          = 2026-01-12T22:10:51.179808
MEAN_MOTION    = 15.79477921
ECCENTRICITY   = .00059622
INCLINATION    = 51.6256
RA_OF_ASC_NODE = 336.4917
ARG_OF_PERICENTER = 80.2617
MEAN_ANOMALY   = 279.9057

EPHEMERIS_TYPE = 0
CLASSIFICATION_TYPE = U
NORAD_CAT_ID   = 65732
ELEMENT_SET_NO = 999
REV_AT_EPOCH   = 1807
BSTAR          = .91492714E-3
MEAN_MOTION_DOT = .172622E-2
MEAN_MOTION_DDOT = 0

CCSDS_OMM_VERS = 2.0
CREATION_DATE  = 
ORIGINATOR     = 

OBJECT_NAME    = GHS-01
OBJECT_ID      = 1998-067XM
CENTER_NAME    = EARTH
REF_FRAME      = TEME
TIME_SYSTEM    = UTC
MEAN_ELEMENT_THEORY = SGP/SGP4

EPOCH          = 2026-01-12T14:25:33.997152
MEAN_MOTION    = 15.99518774
ECCENTRICITY   = .00078697
INCLINATION    = 51.6227
RA_OF_ASC_NODE = 334.2894
ARG_OF_PERICENTER = 109.4075
MEAN_ANOMALY   = 250.7786

EPHEMERIS_TYPE = 0
CLASSIFICATION_TYPE = U
NORAD_CAT_ID   = 65733
ELEMENT_SET_NO = 999
REV_AT_EPOCH   = 1807
BSTAR          = .15877183E-2
MEAN_MOTION_DOT = .810388E-2
MEAN_MOTION_DDOT = .31426136E-3

CCSDS_OMM_VERS = 2.0
CREATION_DATE  = 
ORIGINATOR     = 

OBJECT_NAME    = YOTSUBA-KULOVER
OBJECT_ID      = 1998-067XN
CENTER_NAME    = EARTH
REF_FRAME      = TEME
TIME_SYSTEM    = UTC
MEAN_ELEMENT_THEORY = SGP/SGP4

EPOCH          = 2026-01-12T22:29:21.513984
MEAN_MOTION    = 15.64609487
ECCENTRICITY   = .00040034
INCLINATION    = 51.6289
RA_OF_ASC_NODE = 342.6172
ARG_OF_PERICENTER = 95.9259
MEAN_ANOMALY   = 264.2192

EPHEMERIS_TYPE = 0
CLASSIFICATION_TYPE = U
NORAD_CAT_ID   = 65941
ELEMENT_SET_NO = 999
REV_AT_EPOCH   = 1473
BSTAR          = .65917713E-3
MEAN_MOTION_DOT = .65012E-3
MEAN_MOTION_DDOT = 0

CCSDS_OMM_VERS = 2.0
CREATION_DATE  = 
ORIGINATOR     = 

OBJECT_NAME    = BOTAN
OBJECT_ID      = 1998-067XP
CENTER_NAME    = EARTH
REF_FRAME      = TEME
TIME_SYSTEM    = UTC
MEAN_ELEMENT_THEORY = SGP/SGP4

EPOCH          = 2026-01-12T05:02:23.728704
MEAN_MOTION    = 15.71124823
ECCENTRICITY   = .00047324
INCLINATION    = 51.6268
RA_OF_ASC_NODE = 344.5014
ARG_OF_PERICENTER = 88.7806
MEAN_ANOMALY   = 271.3734

EPHEMERIS_TYPE = 0
CLASSIFICATION_TYPE = U
NORAD_CAT_ID   = 65942
ELEMENT_SET_NO = 999
REV_AT_EPOCH   = 1464
BSTAR          = .12261869E-2
MEAN_MOTION_DOT = .160384E-2
MEAN_MOTION_DDOT = 0

CCSDS_OMM_VERS = 2.0
CREATION_DATE  = 
ORIGINATOR     = 

OBJECT_NAME    = E-KAGAKU-1
OBJECT_ID      = 1998-067XQ
CENTER_NAME    = EARTH
REF_FRAME      = TEME
TIME_SYSTEM    = UTC
MEAN_ELEMENT_THEORY = SGP/SGP4

EPOCH          = 2026-01-12T22:29:12.410016
MEAN_MOTION    = 15.64596272
ECCENTRICITY   = .00025995
INCLINATION    = 51.6308
RA_OF_ASC_NODE = 342.6229
ARG_OF_PERICENTER = 93.3705
MEAN_ANOMALY   = 266.7587

EPHEMERIS_TYPE = 0
CLASSIFICATION_TYPE = U
NORAD_CAT_ID   = 65943
ELEMENT_SET_NO = 999
REV_AT_EPOCH   = 1473
BSTAR          = .63283171E-3
MEAN_MOTION_DOT = .62326E-3
MEAN_MOTION_DDOT = 0

CCSDS_OMM_VERS = 2.0
CREATION_DATE  = 
ORIGINATOR     = 

OBJECT_NAME    = HRC MONOBLOCK CAMERA
OBJECT_ID      = 1998-067XR
CENTER_NAME    = EARTH
REF_FRAME      = TEME
TIME_SYSTEM    = UTC
MEAN_ELEMENT_THEORY = SGP/SGP4

EPOCH          = 2026-01-12T22:37:17.311872
MEAN_MOTION    = 15.56554040
ECCENTRICITY   = .00011286
INCLINATION    = 51.6305
RA_OF_ASC_NODE = 345.6539
ARG_OF_PERICENTER = 353.8183
MEAN_ANOMALY   = 6.2794

EPHEMERIS_TYPE = 0
CLASSIFICATION_TYPE = U
NORAD_CAT_ID   = 66052
ELEMENT_SET_NO = 999
REV_AT_EPOCH   = 1369
BSTAR          = .37838705E-3
MEAN_MOTION_DOT = .26988E-3
MEAN_MOTION_DDOT = 0

CCSDS_OMM_VERS = 2.0
CREATION_DATE  = 
ORIGINATOR     = 

OBJECT_NAME    = HTV-X1
OBJECT_ID      = 2025-241A
CENTER_NAME    = EARTH
REF_FRAME      = TEME
TIME_SYSTEM    = UTC
MEAN_ELEMENT_THEORY = SGP/SGP4

EPOCH          = 2026-01-12T22:49:23.132352
MEAN_MOTION    = 15.49263082
ECCENTRICITY   = .00077162
INCLINATION    = 51.6330
RA_OF_ASC_NODE = 347.9568
ARG_OF_PERICENTER = 11.8640
MEAN_ANOMALY   = 348.2529

EPHEMERIS_TYPE = 0
CLASSIFICATION_TYPE = U
NORAD_CAT_ID   = 66174
ELEMENT_SET_NO = 999
REV_AT_EPOCH   = 51
BSTAR          = .14124674E-3
MEAN_MOTION_DOT = .7414E-4
MEAN_MOTION_DDOT = 0

CCSDS_OMM_VERS = 2.0
CREATION_DATE  = 
ORIGINATOR     = 

OBJECT_NAME    = SZ-21 MODULE
OBJECT_ID      = 2025-246C
CENTER_NAME    = EARTH
REF_FRAME      = TEME
TIME_SYSTEM    = UTC
MEAN_ELEMENT_THEORY = SGP/SGP4

EPOCH          = 2026-01-12T20:10:09.020352
MEAN_MOTION    = 15.64408480
ECCENTRICITY   = .00016707
INCLINATION    = 41.4741
RA_OF_ASC_NODE = 186.0642
ARG_OF_PERICENTER = 152.3579
MEAN_ANOMALY   = 207.7351

EPHEMERIS_TYPE = 0
CLASSIFICATION_TYPE = U
NORAD_CAT_ID   = 66515
ELEMENT_SET_NO = 999
REV_AT_EPOCH   = 931
BSTAR          = .28252809E-3
MEAN_MOTION_DOT = .27649E-3
MEAN_MOTION_DDOT = 0

CCSDS_OMM_VERS = 2.0
CREATION_DATE  = 
ORIGINATOR     = 

OBJECT_NAME    = SHENZHOU-22
OBJECT_ID      = 2025-272A
CENTER_NAME    = EARTH
REF_FRAME      = TEME
TIME_SYSTEM    = UTC
MEAN_ELEMENT_THEORY = SGP/SGP4

EPOCH          = 2026-01-12T19:57:11.090304
MEAN_MOTION    = 15.60461132
ECCENTRICITY   = .00115103
INCLINATION    = 41.4654
RA_OF_ASC_NODE = 187.7636
ARG_OF_PERICENTER = 272.9860
MEAN_ANOMALY   = 86.9661

EPHEMERIS_TYPE = 0
CLASSIFICATION_TYPE = U
NORAD_CAT_ID   = 66645
ELEMENT_SET_NO = 999
REV_AT_EPOCH   = 26764
BSTAR          = .21248408E-3
MEAN_MOTION_DOT = .17741E-3
MEAN_MOTION_DDOT = 0

